{
  "type": "FeatureCollection",
  "features": [
    {
      "type": "Feature",
      "properties": {
        "norad_id": 64751,
        "name": "PROGRESS-MS 31",
        "group": "stations",
        "lat": -29.737132572663448,
        "lon": -59.96468496907992,
        "alt_km": 420.32672269300383,
        "timestamp": "2025-12-22T16:55:16.200744+00:00",
        "meta_object_name": "PROGRESS-MS 31",
        "meta_object_id": "2025-146A",
        "meta_epoch": "2025-12-21T22:57:18.016992",
        "meta_mean_motion": 15.49714244,
        "meta_eccentricity": 0.00031643,
        "meta_inclination": 51.6324,
        "meta_ra_of_asc_node": 96.8363,
        "meta_arg_of_pericenter": 283.4657,
        "meta_mean_anomaly": 76.5979,
        "meta_ephemeris_type": 0,
        "meta_classification_type": "U",
        "meta_norad_cat_id": 64751,
        "meta_element_set_no": 999,
        "meta_rev_at_epoch": 675,
        "meta_bstar": 0.00020227117,
        "meta_mean_motion_dot": 0.0001099,
        "meta_mean_motion_ddot": 0,
        "tle_line1": "1 64751U 25146A   25355.95645853  .00010990  00000+0  20227-3 0  9990",
        "tle_line2": "2 64751  51.6324  96.8363 0003164 283.4657  76.5979 15.49714244  6752"
      },
      "geometry": {
        "type": "Point",
        "coordinates": [
          -59.96468496907992,
          -29.737132572663448
        ]
      }
    },
    {
      "type": "Feature",
      "properties": {
        "norad_id": 64786,
        "name": "TIANZHOU-9",
        "group": "stations",
        "lat": -1.9764252695328246,
        "lon": -46.05048519167657,
        "alt_km": 391.41931860914065,
        "timestamp": "2025-12-22T16:55:16.200755+00:00",
        "meta_object_name": "TIANZHOU-9",
        "meta_object_id": "2025-149A",
        "meta_epoch": "2025-12-22T04:38:19.938912",
        "meta_mean_motion": 15.59558261,
        "meta_eccentricity": 0.00077972,
        "meta_inclination": 41.4687,
        "meta_ra_of_asc_node": 319.2988,
        "meta_arg_of_pericenter": 114.0639,
        "meta_mean_anomaly": 246.1016,
        "meta_ephemeris_type": 0,
        "meta_classification_type": "U",
        "meta_norad_cat_id": 64786,
        "meta_element_set_no": 999,
        "meta_rev_at_epoch": 25530,
        "meta_bstar": 0.00024063854,
        "meta_mean_motion_dot": 0.00019415,
        "meta_mean_motion_ddot": 0,
        "tle_line1": "1 64786U 25149A   25356.19328633  .00019415  00000+0  24064-3 0  9996",
        "tle_line2": "2 64786  41.4687 319.2988 0007797 114.0639 246.1016 15.59558261255309"
      },
      "geometry": {
        "type": "Point",
        "coordinates": [
          -46.05048519167657,
          -1.9764252695328246
        ]
      }
    },
    {
      "type": "Feature",
      "properties": {
        "norad_id": 65077,
        "name": "CREW DRAGON 11",
        "group": "stations",
        "lat": -29.737133520324008,
        "lon": -59.964683853618084,
        "alt_km": 420.32672270749845,
        "timestamp": "2025-12-22T16:55:16.200765+00:00",
        "meta_object_name": "CREW DRAGON 11",
        "meta_object_id": "2025-166A",
        "meta_epoch": "2025-12-21T22:57:18.016992",
        "meta_mean_motion": 15.49714244,
        "meta_eccentricity": 0.00031643,
        "meta_inclination": 51.6324,
        "meta_ra_of_asc_node": 96.8363,
        "meta_arg_of_pericenter": 283.4657,
        "meta_mean_anomaly": 76.5979,
        "meta_ephemeris_type": 0,
        "meta_classification_type": "U",
        "meta_norad_cat_id": 65077,
        "meta_element_set_no": 999,
        "meta_rev_at_epoch": 214,
        "meta_bstar": 0.00020227117,
        "meta_mean_motion_dot": 0.0001099,
        "meta_mean_motion_ddot": 0,
        "tle_line1": "1 65077U 25166A   25355.95645853  .00010990  00000+0  20227-3 0  9994",
        "tle_line2": "2 65077  51.6324  96.8363 0003164 283.4657  76.5979 15.49714244  2143"
      },
      "geometry": {
        "type": "Point",
        "coordinates": [
          -59.964683853618084,
          -29.737133520324008
        ]
      }
    },
    {
      "type": "Feature",
      "properties": {
        "norad_id": 65304,
        "name": "DRAGON CRS-33",
        "group": "stations",
        "lat": -29.737133971590996,
        "lon": -59.96468332244568,
        "alt_km": 420.32672271440515,
        "timestamp": "2025-12-22T16:55:16.200775+00:00",
        "meta_object_name": "DRAGON CRS-33",
        "meta_object_id": "2025-186A",
        "meta_epoch": "2025-12-21T22:57:18.016992",
        "meta_mean_motion": 15.49714244,
        "meta_eccentricity": 0.00031643,
        "meta_inclination": 51.6324,
        "meta_ra_of_asc_node": 96.8363,
        "meta_arg_of_pericenter": 283.4657,
        "meta_mean_anomaly": 76.5979,
        "meta_ephemeris_type": 0,
        "meta_classification_type": "U",
        "meta_norad_cat_id": 65304,
        "meta_element_set_no": 999,
        "meta_rev_at_epoch": 11,
        "meta_bstar": 0.00020227117,
        "meta_mean_motion_dot": 0.0001099,
        "meta_mean_motion_ddot": 0,
        "tle_line1": "1 65304U 25186A   25355.95645853  .00010990  00000+0  20227-3 0  9999",
        "tle_line2": "2 65304  51.6324  96.8363 0003164 283.4657  76.5979 15.49714244   111"
      },
      "geometry": {
        "type": "Point",
        "coordinates": [
          -59.96468332244568,
          -29.737133971590996
        ]
      }
    },
    {
      "type": "Feature",
      "properties": {
        "norad_id": 65586,
        "name": "PROGRESS-MS 32",
        "group": "stations",
        "lat": -29.737134558238164,
        "lon": -59.9646826319215,
        "alt_km": 420.3267227233764,
        "timestamp": "2025-12-22T16:55:16.200788+00:00",
        "meta_object_name": "PROGRESS-MS 32",
        "meta_object_id": "2025-204A",
        "meta_epoch": "2025-12-21T22:57:18.016992",
        "meta_mean_motion": 15.49714244,
        "meta_eccentricity": 0.00031643,
        "meta_inclination": 51.6324,
        "meta_ra_of_asc_node": 96.8363,
        "meta_arg_of_pericenter": 283.4657,
        "meta_mean_anomaly": 76.5979,
        "meta_ephemeris_type": 0,
        "meta_classification_type": "U",
        "meta_norad_cat_id": 65586,
        "meta_element_set_no": 999,
        "meta_rev_at_epoch": 27,
        "meta_bstar": 0.00020227117,
        "meta_mean_motion_dot": 0.0001099,
        "meta_mean_motion_ddot": 0,
        "tle_line1": "1 65586U 25204A   25355.95645853  .00010990  00000+0  20227-3 0  9992",
        "tle_line2": "2 65586  51.6324  96.8363 0003164 283.4657  76.5979 15.49714244   270"
      },
      "geometry": {
        "type": "Point",
        "coordinates": [
          -59.9646826319215,
          -29.737134558238164
        ]
      }
    },
    {
      "type": "Feature",
      "properties": {
        "norad_id": 65616,
        "name": "CYGNUS NG-23",
        "group": "stations",
        "lat": -29.73713500950574,
        "lon": -59.964682100748384,
        "alt_km": 420.32672273027947,
        "timestamp": "2025-12-22T16:55:16.200798+00:00",
        "meta_object_name": "CYGNUS NG-23",
        "meta_object_id": "2025-208A",
        "meta_epoch": "2025-12-21T22:57:18.016992",
        "meta_mean_motion": 15.49714244,
        "meta_eccentricity": 0.00031643,
        "meta_inclination": 51.6324,
        "meta_ra_of_asc_node": 96.8363,
        "meta_arg_of_pericenter": 283.4657,
        "meta_mean_anomaly": 76.5979,
        "meta_ephemeris_type": 0,
        "meta_classification_type": "U",
        "meta_norad_cat_id": 65616,
        "meta_element_set_no": 999,
        "meta_rev_at_epoch": 22,
        "meta_bstar": 0.00020227117,
        "meta_mean_motion_dot": 0.0001099,
        "meta_mean_motion_ddot": 0,
        "tle_line1": "1 65616U 25208A   25355.95645853  .00010990  00000+0  20227-3 0  9990",
        "tle_line2": "2 65616  51.6324  96.8363 0003164 283.4657  76.5979 15.49714244   229"
      },
      "geometry": {
        "type": "Point",
        "coordinates": [
          -59.964682100748384,
          -29.73713500950574
        ]
      }
    },
    {
      "type": "Feature",
      "properties": {
        "norad_id": 65729,
        "name": "DRAGONFLY",
        "group": "stations",
        "lat": -17.5844972324919,
        "lon": 70.06145341270843,
        "alt_km": 341.7878748664634,
        "timestamp": "2025-12-22T16:55:16.200809+00:00",
        "meta_object_name": "DRAGONFLY",
        "meta_object_id": "1998-067XH",
        "meta_epoch": "2025-12-21T12:05:00.182112",
        "meta_mean_motion": 15.74757439,
        "meta_eccentricity": 0.00076429,
        "meta_inclination": 51.6248,
        "meta_ra_of_asc_node": 90.7906,
        "meta_arg_of_pericenter": 331.3887,
        "meta_mean_anomaly": 28.6692,
        "meta_ephemeris_type": 0,
        "meta_classification_type": "U",
        "meta_norad_cat_id": 65729,
        "meta_element_set_no": 999,
        "meta_rev_at_epoch": 1454,
        "meta_bstar": 0.0011143693,
        "meta_mean_motion_dot": 0.00170588,
        "meta_mean_motion_ddot": 0,
        "tle_line1": "1 65729U 98067XH  25355.50347433  .00170588  00000+0  11144-2 0  9999",
        "tle_line2": "2 65729  51.6248  90.7906 0007642 331.3887  28.6692 15.74757439 14549"
      },
      "geometry": {
        "type": "Point",
        "coordinates": [
          70.06145341270843,
          -17.5844972324919
        ]
      }
    }
  ]
}